STARLINK-31798          
1 59635U 24082E   26068.26914961 -.00002532  00000+0 -82554-4 0  9995
2 59635  43.0027 142.5253 0001021 256.0206 104.0533 15.27569587104740
TEVEL2-9                
1 63237U 25052AD  26068.70229538  .00018694  00000+0  67240-3 0  9992
2 63237  97.4057 324.3929 0007990 124.2475 235.9522 15.28633834 54816
